TIGRISAT                
1 40043U 14033AK  26204.83308801  .00001439  00000+0  17067-3 0  9997
2 40043  97.7875 354.0167 0047998 315.5336  44.2030 14.85268929651060
LEMUR-1                 
1 40044U 14033AL  26204.87430021  .00001493  00000+0  17657-3 0  9997
2 40044  97.7919 353.8760 0047119 319.0161  40.7516 14.85356761650911
AEROCUBE 6A             
1 40045U 14033AM  26204.02093090  .00006125  00000+0  51139-3 0  9996
2 40045  97.7275  10.6016 0036112 253.9554 105.7690 14.98410696651987
AEROCUBE 6B             
1 40046U 14033AN  26204.72232059  .00005717  00000+0  45919-3 0  9999
2 40046  97.7204  11.1565 0038277 239.9938 119.7485 14.99862817652232
SPOT 7                  
1 40053U 14034A   26204.82283400  .00000370  00000+0  84639-4 0  9998
2 40053  98.0610 266.3668 0001692  93.6773 266.4622 14.60986150642480
CANX-4                  
1 40055U 14034C   26204.22314959  .00000730  00000+0  10082-3 0  9998
2 40055  98.3072  80.8513 0011389 253.9790 106.0167 14.81321100649862
CANX-5                  
1 40056U 14034D   26204.49135053  .00000732  00000+0  10106-3 0  9993
2 40056  98.3074  81.1750 0011405 253.2971 106.6989 14.81338876640716
OCO 2                   
1 40059U 14035A   26204.82467984  .00000315  00000+0  79877-4 0  9993
2 40059  98.2021 145.5618 0001395  80.9077 279.2279 14.57137223641386
GONETS-M 8              
1 40061U 14036A   26204.83128225 -.00000158  00000+0 -12073-2 0  9990
2 40061  82.5106 284.8198 0030924  70.7270 289.7151 12.42985792547004
GONETS-M 9              
1 40062U 14036B   26204.87346003 -.00000010  00000+0 -14539-3 0  9998
2 40062  82.5105 284.8735 0024266  77.2928 283.0862 12.42952050547013
GONETS-M 10             
1 40063U 14036C   26204.85588490 -.00000078  00000+0 -63694-3 0  9995
2 40063  82.5109 284.9006 0022779  64.4520 295.8911 12.42946155546804
METEOR-M 2              
1 40069U 14037A   26204.88906484  .00000063  00000+0  47956-4 0  9998
2 40069  98.5143 179.3323 0004679 297.2364  62.8337 14.21471365624531
DX1                     
1 40071U 14037C   26204.89277484  .00000839  00000+0  93360-4 0  9994
2 40071  98.3889 168.8291 0007786 143.5806 216.5941 14.90078415651570
SKYSAT-B                
1 40072U 14037D   26204.83918674  .00001208  00000+0  13790-3 0  9991
2 40072  98.3859 165.9005 0006150 146.8472 213.3130 14.88108065651418
UKUBE-1                 
1 40074U 14037F   26203.00273654  .00008356  00000+0  46405-3 0  9993
2 40074  98.4254 209.9476 0003134  76.9955 283.1624 15.14023415653824
TECHDEMOSAT-1 (TDS-1)   
1 40076U 14037H   26204.71783138  .00007263  00000+0  40660-3 0  9990
2 40076  98.3838 200.5691 0007597 134.2927 225.8926 15.13770816653756
O3B FM3                 
1 40079U 14038A   26204.68577753 -.00000024  00000+0  00000+0 0  9993
2 40079   0.0479 352.4242 0002827 181.2609 186.3163  5.00115809214879
O3B FM7                 
1 40080U 14038B   26204.43201382 -.00000024  00000+0  00000+0 0  9990
2 40080   0.0446 344.0074 0003504 104.9315 271.0990  5.00115754219698
O3B FM6                 
1 40081U 14038C   26204.65887468 -.00000024  00000+0  00000+0 0  9990
2 40081   0.0462 349.6841 0002610 131.0260 239.3135  5.00115848219655
O3B FM8                 
1 40082U 14038D   26204.71210402 -.00000024  00000+0  00000+0 0  9996
2 40082   0.0457 348.3694 0002770 134.5854 237.0696  5.00116185219760
ORBCOMM FM109           
1 40086U 14040A   26203.50594400  .00000088  00000+0  54798-4 0  9999
2 40086  47.0030 284.4996 0001098 346.5261  13.5595 14.58874903639501
NAVSTAR 71 (USA 256)    
1 40105U 14045A   26204.45062037 -.00000067  00000+0  00000+0 0  9997
2 40105  55.3768  87.0199 0034748 118.5514 241.8496  2.00561117 86800
ASIASAT 8 (AMOS-7)      
1 40107U 14046A   26204.84705176 -.00000327  00000+0  00000+0 0  9990
2 40107   0.0600 258.0479 0001903 208.6933 245.0472  1.00267105102514
YAOGAN-20 01A           
1 40109U 14047A   26204.85435100  .00000009  00000+0  10494-3 0  9999
2 40109  63.3790 284.6052 0393204  14.8664 346.3539 13.45443948587379
YAOGAN-20 01B           
1 40110U 14047B   26204.85608368 -.00000055  00000+0  38207-4 0  9994
2 40110  63.3790 285.4796 0393048  14.8893 346.3322 13.45441435587217
YAOGAN-20 01C           
1 40111U 14047C   26204.84636184 -.00000084  00000+0  69402-5 0  9995
2 40111  63.3782 285.1799 0393089  15.2850 345.9659 13.45451426587222
WORLDVIEW-3 (WV-3)      
1 40115U 14048A   26204.82157712  .00000688  00000+0  86724-4 0  9997
2 40115  97.8550 279.1465 0001903 142.2739 217.8610 14.85074303647346
GAOFEN-2                
1 40118U 14049A   26204.86512399  .00000667  00000+0  93049-4 0  9996
2 40118  98.0089 269.0335 0008681 110.7983 249.4160 14.80935318644664
BRITE-PL2 (HEWELIUSZ)   
1 40119U 14049B   26204.72502102  .00001847  00000+0  17545-3 0  9990
2 40119  97.9123 317.0145 0013547 354.4816   5.6253 14.94707430646905
GSAT0201 (GALILEO 5)    
1 40128U 14050A   26202.91197597 -.00000055  00000+0  00000+0 0  9994
2 40128  48.8375 272.0101 1679296 180.7600 179.0021  1.85519659 78966
GSAT0202 (GALILEO 6)    
1 40129U 14050B   26203.70637764 -.00000045  00000+0  00000+0 0  9997
2 40129  48.8542 271.0635 1680735 181.4997 177.9799  1.85520638 81143
